0 FENGYUN 1C DEB
1 35208U 99025DPQ 13281.29694979  .00001073  00000-0  86844-3 0  3801
2 35208 099.3347 303.0429 0112489 036.7221 324.1598 13.89555105286822
0 FENGYUN 1C DEB
1 35208U 99025DPQ 13283.24103918  .00001099  00000-0  88862-3 0  3817
2 35208 099.3358 304.9921 0112350 031.5708 329.2203 13.89559901287098
0 FENGYUN 1C DEB
1 35208U 99025DPQ 13284.32108405  .00001153  00000-0  93069-3 0  3820
2 35208 099.3360 306.0754 0112367 028.8519 331.8883 13.89563192287242
0 FENGYUN 1C DEB
1 35208U 99025DPQ 13287.27319597  .00001204  00000-0  96988-3 0  3834
2 35208 099.3389 309.0430 0112434 020.6013 339.9731 13.89570994287655
0 FENGYUN 1C DEB
1 35208U 99025DPQ 13288.28122812  .00001210  00000-0  97521-3 0  3840
2 35208 099.3394 310.0553 0112409 018.1334 342.3791 13.89573589287791
0 FENGYUN 1C DEB
1 35208U 99025DPQ 13289.28926020  .00001248  00000-0  10048-2 0  3854
2 35208 099.3396 311.0664 0112170 015.4862 344.9776 13.89576719287933
0 FENGYUN 1C DEB
1 35208U 99025DPQ 13290.29728814  .00001313  00000-0  10554-2 0  3864
2 35208 099.3432 312.0838 0111635 013.0142 347.4006 13.89580208288076
0 FENGYUN 1C DEB
1 35208U 99025DPQ 13292.31333723  .00001368  00000-0  10983-2 0  3877
2 35208 099.3424 314.1037 0111843 007.5101 352.7765 13.89586525288355
0 FENGYUN 1C DEB
1 35208U 99025DPQ 13293.32135823  .00001421  00000-0  11387-2 0  3880
2 35208 099.3414 315.1118 0112054 004.4961 355.7308 13.89590391288497
0 FENGYUN 1C DEB
1 35208U 99025DPQ 13295.26539111  .00001473  00000-0  11784-2 0  3892
2 35208 099.3373 317.0512 0112625 358.9423 001.1569 13.89597103288763
